OBJECT_NAME,OBJECT_ID,EPOCH,MEAN_MOTION,ECCENTRICITY,INCLINATION,RA_OF_ASC_NODE,ARG_OF_PERICENTER,MEAN_ANOMALY,EPHEMERIS_TYPE,CLASSIFICATION_TYPE,NORAD_CAT_ID,ELEMENT_SET_NO,REV_AT_EPOCH,BSTAR,MEAN_MOTION_DOT,MEAN_MOTION_DDOT
STARLINK-1066,2020-001AS,2022-05-17T03:35:35.111616,15.06390312,.0001878,53.0574,77.9628,53.0035,307.1125,0,U,44954,999,13046,.3951E-5,-.223E-5,0
STARLINK-1069,2020-001AT,2022-05-16T19:48:29.645568,15.06387136,.0002048,53.0550,79.4367,49.3688,310.7479,0,U,44955,999,13041,.39525E-3,.5608E-4,0
STARLINK-1070,2020-001AU,2022-05-17T03:40:53.429088,15.06388844,.0001398,53.0558,77.9658,62.4684,297.6447,0,U,44956,999,13052,-.40257E-4,-.881E-5,0
STARLINK-1074,2020-001AV,2022-05-17T02:42:31.022784,15.06384327,.0001759,53.0550,78.1433,53.8242,306.2909,0,U,44957,999,13051,-.98526E-4,-.1748E-4,0
STARLINK-1076,2020-001AX,2022-05-17T03:03:44.657280,15.06375086,.000227,53.0543,78.0693,50.0570,310.0618,0,U,44959,999,13051,-.38049E-3,-.5941E-4,0
STARLINK-1080,2020-001AZ,2022-05-16T20:52:11.399232,15.06394430,.0001601,53.0570,79.2436,63.3231,296.7922,0,U,44961,999,13048,.34881E-4,.238E-5,0
STARLINK-1085,2020-001BB,2022-05-16T20:14:32.324352,15.13895915,.0002666,52.9991,69.0000,72.2217,287.9065,0,U,44963,999,13132,.14867E-2,.27029E-3,0
STARLINK-1086,2020-001BC,2022-05-16T19:59:06.639072,15.06395995,.0001422,53.0551,79.3868,61.1267,298.9864,0,U,44964,999,13047,.96798E-4,.116E-4,0
STARLINK-1088,2020-001BE,2022-05-16T20:30:57.572928,15.06398511,.0001767,53.0558,79.3029,61.7297,298.3870,0,U,44966,999,13047,.55701E-4,.548E-5,0
STARLINK-1089,2020-001BF,2022-05-16T19:27:15.574752,15.06395191,.0001627,53.0552,79.5009,60.6156,299.4996,0,U,44967,999,13047,.21768E-4,.43E-6,0
STARLINK-1090,2020-001BG,2022-05-17T03:19:39.340992,15.06393668,.0001716,53.0566,78.0304,56.2855,303.8297,0,U,44968,999,13052,.60497E-4,.619E-5,0
STARLINK-1092,2020-001BH,2022-05-16T20:46:52.502880,15.06396355,.0001645,53.0552,79.2513,68.6669,291.4495,0,U,44969,999,13047,-.57537E-4,-.1138E-4,0
STARLINK-1093,2020-001BJ,2022-05-17T02:37:11.830080,15.06390394,.0001492,53.0553,78.1510,63.8965,296.2178,0,U,44970,999,13050,-.60131E-5,-.371E-5,0
STARLINK-1107,2020-001BL,2022-05-17T03:30:16.834752,15.06385367,.0001573,53.0579,77.9998,61.6338,298.4809,0,U,44972,999,13052,.37711E-5,-.225E-5,0
STARLINK-1115,2020-001BM,2022-05-17T02:58:25.678848,15.06395152,.0002177,53.0548,78.0955,35.2827,324.8305,0,U,44973,999,13051,.58622E-6,-.273E-5,0
STARLINK-1132,2020-006A,2022-05-16T19:59:06.509472,15.06398930,.000184,53.0554,39.4073,65.4368,294.6812,0,U,45044,999,12680,-.52491E-4,-.1063E-4,0
STARLINK-1120,2020-006B,2022-05-16T18:04:59.471904,15.06402129,.0001902,53.0557,59.7463,48.1842,311.9309,0,U,45045,999,12651,.18683E-4,-.3E-7,0
STARLINK-1129,2020-006C,2022-05-16T21:09:11.791872,15.13567410,.0002477,52.9964,49.1271,95.9457,264.1817,0,U,45046,999,12663,.14808E-2,.2667E-3,0
STARLINK-1131,2020-006D,2022-05-16T19:45:51.792768,15.06382904,.0001664,53.0562,59.4428,61.9992,298.1165,0,U,45047,999,12652,.37659E-4,.279E-5,0
STARLINK-1134,2020-006E,2022-05-16T19:56:26.958048,15.06397514,.0001559,53.0550,59.3948,71.6657,288.4501,0,U,45048,999,12652,.50891E-5,-.206E-5,0
STARLINK-1135,2020-006F,2022-05-16T11:38:43.103040,15.09010466,.0000653,53.0561,60.0894,47.7128,312.3917,0,U,45049,999,12648,.1661E-2,.26372E-3,0
STARLINK-1140,2020-006G,2022-05-16T20:12:22.503168,15.06402786,.0001782,53.0549,59.3471,63.9276,296.1896,0,U,45050,999,12652,.15477E-3,.2025E-4,0
STARLINK-1141,2020-006H,2022-05-16T20:05:40.635168,15.11436304,.0002453,53.0517,56.5465,88.4295,271.6977,0,U,45051,999,12656,.14897E-2,.25266E-3,0
STARLINK-1148,2020-006J,2022-05-16T20:23:00.652704,15.06408554,.0001625,53.0558,59.3148,58.1857,301.9290,0,U,45052,999,12652,.63032E-4,.658E-5,0
STARLINK-1155,2020-006K,2022-05-16T20:15:49.077792,15.11867887,.0002467,53.0028,52.8040,82.0410,278.0861,0,U,45053,999,12658,.17789E-2,.30619E-3,0
STARLINK-1156,2020-006L,2022-05-16T20:17:41.257824,15.06398655,.0001662,53.0546,59.3480,61.0161,299.0994,0,U,45054,999,12652,.10405E-3,.1269E-4,0
STARLINK-1159,2020-006P,2022-05-16T20:38:55.040064,15.06404939,.0001725,53.0574,59.2602,65.6146,294.5023,0,U,45057,999,12653,.29108E-3,.4057E-4,0
STARLINK-1162,2020-006Q,2022-05-16T12:30:36.126144,15.06400778,.000177,53.0568,60.7872,58.5118,301.6044,0,U,45058,999,12648,.74861E-4,.834E-5,0
STARLINK-1165,2020-006R,2022-05-16T21:00:09.020160,15.06396297,.000137,53.0559,59.2139,70.4035,289.7102,0,U,45059,999,12653,-.37445E-4,-.839E-5,0
STARLINK-1166,2020-006S,2022-05-16T04:59:27.013920,15.06390419,.0002076,53.0566,62.2038,52.9202,307.1977,0,U,45060,999,12643,.75228E-4,.839E-5,0
