STARLINK-1066           
1 44954U 20001AS  22137.14971194 -.00000223  00000+0  39510-5 0  9990
2 44954  53.0574  77.9628 0001878  53.0035 307.1125 15.06390312130464
STARLINK-1069           
1 44955U 20001AT  22136.82534312  .00005608  00000+0  39525-3 0  9997
2 44955  53.0550  79.4367 0002048  49.3688 310.7479 15.06387136130415
STARLINK-1070           
1 44956U 20001AU  22137.15339617 -.00000881  00000+0 -40257-4 0  9991
2 44956  53.0558  77.9658 0001398  62.4684 297.6447 15.06388844130526
STARLINK-1074           
1 44957U 20001AV  22137.11285906 -.00001748  00000+0 -98526-4 0  9994
2 44957  53.0550  78.1433 0001759  53.8242 306.2909 15.06384327130519
STARLINK-1076           
1 44959U 20001AX  22137.12760020 -.00005941  00000+0 -38049-3 0  9994
2 44959  53.0543  78.0693 0002270  50.0570 310.0618 15.06375086130514
STARLINK-1080           
1 44961U 20001AZ  22136.86957638  .00000238  00000+0  34881-4 0  9993
2 44961  53.0570  79.2436 0001601  63.3231 296.7922 15.06394430130481
STARLINK-1085           
1 44963U 20001BB  22136.84342968  .00027029  00000+0  14867-2 0  9994
2 44963  52.9991  69.0000 0002666  72.2217 287.9065 15.13895915131323
STARLINK-1086           
1 44964U 20001BC  22136.83271573  .00001160  00000+0  96798-4 0  9990
2 44964  53.0551  79.3868 0001422  61.1267 298.9864 15.06395995130474
STARLINK-1088           
1 44966U 20001BE  22136.85483302  .00000548  00000+0  55701-4 0  9997
2 44966  53.0558  79.3029 0001767  61.7297 298.3870 15.06398511130471
STARLINK-1089           
1 44967U 20001BF  22136.81059693  .00000043  00000+0  21768-4 0  9992
2 44967  53.0552  79.5009 0001627  60.6156 299.4996 15.06395191130475
STARLINK-1090           
1 44968U 20001BG  22137.13864978  .00000619  00000+0  60497-4 0  9990
2 44968  53.0566  78.0304 0001716  56.2855 303.8297 15.06393668130526
STARLINK-1092           
1 44969U 20001BH  22136.86588545 -.00001138  00000+0 -57537-4 0  9993
2 44969  53.0552  79.2513 0001645  68.6669 291.4495 15.06396355130470
STARLINK-1093           
1 44970U 20001BJ  22137.10916470 -.00000371  00000+0 -60131-5 0  9998
2 44970  53.0553  78.1510 0001492  63.8965 296.2178 15.06390394130506
STARLINK-1107           
1 44972U 20001BL  22137.14602818 -.00000225  00000+0  37711-5 0  9997
2 44972  53.0579  77.9998 0001573  61.6338 298.4809 15.06385367130524
STARLINK-1115           
1 44973U 20001BM  22137.12390832 -.00000273  00000+0  58622-6 0  9994
2 44973  53.0548  78.0955 0002177  35.2827 324.8305 15.06395152130514
STARLINK-1132           
1 45044U 20006A   22136.83271423 -.00001063  00000+0 -52491-4 0  9995
2 45044  53.0554  39.4073 0001840  65.4368 294.6812 15.06398930126805
STARLINK-1120           
1 45045U 20006B   22136.75346611 -.00000003  00000+0  18683-4 0  9996
2 45045  53.0557  59.7463 0001902  48.1842 311.9309 15.06402129126519
STARLINK-1129           
1 45046U 20006C   22136.88138648  .00026670  00000+0  14808-2 0  9990
2 45046  52.9964  49.1271 0002477  95.9457 264.1817 15.13567410126639
STARLINK-1131           
1 45047U 20006D   22136.82351612  .00000279  00000+0  37659-4 0  9991
2 45047  53.0562  59.4428 0001664  61.9992 298.1165 15.06382904126524
STARLINK-1134           
1 45048U 20006E   22136.83086757 -.00000206  00000+0  50891-5 0  9993
2 45048  53.0550  59.3948 0001559  71.6657 288.4501 15.06397514126526
STARLINK-1135           
1 45049U 20006F   22136.48522110  .00026372  00000+0  16610-2 0  9992
2 45049  53.0561  60.0894 0000653  47.7128 312.3917 15.09010466126483
STARLINK-1140           
1 45050U 20006G   22136.84192712  .00002025  00000+0  15477-3 0  9995
2 45050  53.0549  59.3471 0001782  63.9276 296.1896 15.06402786126528
STARLINK-1141           
1 45051U 20006H   22136.83727587  .00025266  00000+0  14897-2 0  9995
2 45051  53.0517  56.5465 0002453  88.4295 271.6977 15.11436304126566
STARLINK-1148           
1 45052U 20006J   22136.84931311  .00000658  00000+0  63032-4 0  9994
2 45052  53.0558  59.3148 0001625  58.1857 301.9290 15.06408554126520
STARLINK-1155           
1 45053U 20006K   22136.84431803  .00030619  00000+0  17789-2 0  9992
2 45053  53.0028  52.8040 0002467  82.0410 278.0861 15.11867887126586
STARLINK-1156           
1 45054U 20006L   22136.84561641  .00001269  00000+0  10405-3 0  9995
2 45054  53.0546  59.3480 0001662  61.0161 299.0994 15.06398655126528
STARLINK-1159           
1 45057U 20006P   22136.86035926  .00004057  00000+0  29108-3 0  9990
2 45057  53.0574  59.2602 0001725  65.6146 294.5023 15.06404939126537
STARLINK-1162           
1 45058U 20006Q   22136.52125146  .00000834  00000+0  74861-4 0  9994
2 45058  53.0568  60.7872 0001770  58.5118 301.6044 15.06400778126481
STARLINK-1165           
1 45059U 20006R   22136.87510440 -.00000839  00000+0 -37445-4 0  9992
2 45059  53.0559  59.2139 0001370  70.4035 289.7102 15.06396297126535
STARLINK-1166           
1 45060U 20006S   22136.20795155  .00000839  00000+0  75228-4 0  9998
2 45060  53.0566  62.2038 0002076  52.9202 307.1977 15.06390419126436
